NORAD_CAT_ID,OBJECT_NAME,OBJECT_TYPE,EPOCH,MEAN_MOTION,ECCENTRICITY,INCLINATION,RA_OF_ASC_NODE,ARG_OF_PERICENTER,MEAN_ANOMALY,BSTAR,MEAN_MOTION_DOT,MEAN_MOTION_DDOT,TLE_LINE0,TLE_LINE1,TLE_LINE2,SEMIMAJOR_AXIS,PERIOD,APOGEE,PERIGEE,DECAYED
53983.0,STARLINK-5103,PAYLOAD,2022-12-14 14:00:01,15.47109401,0.0001559,53.217,108.7742,43.0876,213.0174,-0.019258,-0.00912479,0.0,0 STARLINK-5103,1 53983U 22125V   22348.58334491 -.00912479  00000-0 -19258-1 0  9996,2 53983  53.2170 108.7742 0001559  43.0876 213.0174 15.47109401 11322,6803.324000000001,93.077,426.25,424.128,0.0
53983.0,STARLINK-5103,PAYLOAD,2022-12-14 20:39:50,15.4796042,0.0001137,53.2119,107.4625,41.5634,318.5462,-0.0037813,-0.00196064,0.0,0 STARLINK-5103,1 53983U 22125V   22348.86100446 -.00196064  00000-0 -37813-2 0  9990,2 53983  53.2119 107.4625 0001137  41.5634 318.5462 15.47960420 11303,6800.83,93.026,423.469,421.922,0.0
53983.0,STARLINK-5103,PAYLOAD,2022-12-15 09:04:18,15.47240293,0.0001774999999999,53.2145,105.0057,110.9633,249.1566,-0.0038045,-0.00192485,0.0,0 STARLINK-5103,1 53983U 22125V   22349.37799735 -.00192485  00000-0 -38045-2 0  9993,2 53983  53.2145 105.0057 0001775 110.9633 249.1566 15.47240293 11452,6802.94,93.069,426.013,423.598,0.0
53983.0,STARLINK-5103,PAYLOAD,2022-12-15 13:44:01,15.46689797,0.0001509,53.214,104.0848,32.4971,327.613,-0.0049982,-0.0024627,0.0,0 STARLINK-5103,1 53983U 22125V   22349.57224215 -.00246270  00000-0 -49982-2 0  9995,2 53983  53.2140 104.0848 0001509  32.4971 327.6130 15.46689797 11412,6804.554,93.102,427.446,425.393,0.0
53983.0,STARLINK-5103,PAYLOAD,2022-12-15 22:00:00,15.44507464,0.000213,53.2172,102.4403,26.8922,93.2554,-0.021125,-0.00914793,0.0,0 STARLINK-5103,1 53983U 22125V   22349.91667824 -.00914793  00000-0 -21125-1 0  9990,2 53983  53.2172 102.4403 0002130  26.8922  93.2554 15.44507464 11537,6810.9630000000025,93.234,434.278,431.377,0.0
53983.0,STARLINK-5103,PAYLOAD,2022-12-16 14:00:01,15.43204311,0.0001496,53.2169,99.2838,53.0075,174.4678,-0.022052,-0.00913415,0.0,0 STARLINK-5103,1 53983U 22125V   22350.58334491 -.00913415  00000-0 -22052-1 0  9996,2 53983  53.2169  99.2838 0001496  53.0075 174.4678 15.43204311  1300,6814.795999999999,93.312,437.681,435.642,0.0
53983.0,STARLINK-5103,PAYLOAD,2022-12-16 22:00:00,15.42556242,0.0001409999999999,53.2172,97.7066,52.8368,227.1285,-0.022669,-0.00918161,0.0,0 STARLINK-5103,1 53983U 22125V   22350.91667824 -.00918161  00000-0 -22669-1 0  9999,2 53983  53.2172  97.7066 0001410  52.8368 227.1285 15.42556242 11682,6816.705,93.352,439.531,437.609,0.0
53983.0,STARLINK-5103,PAYLOAD,2022-12-17 14:00:01,15.41255145,0.0001528,53.2168,94.5593,44.3869,338.2753,-0.023699,-0.00918753,0.0,0 STARLINK-5103,1 53983U 22125V   22351.58335648 -.00918753  00000-0 -23699-1 0  9990,2 53983  53.2168  94.5593 0001528  44.3869 338.2753 15.41255145  1308,6820.541,93.43,443.448,441.364,0.0
53983.0,STARLINK-5103,PAYLOAD,2022-12-17 22:00:00,15.40609275,0.0001736,53.2165,92.9874,36.6586,36.0812,-0.024419,-0.00925873,0.0,0 STARLINK-5103,1 53983U 22125V   22351.91667824 -.00925873  00000-0 -24419-1 0  9993,2 53983  53.2165  92.9874 0001736  36.6586  36.0812 15.40609275 11845,6822.446999999999,93.47,445.496,443.128,0.0
53983.0,STARLINK-5103,PAYLOAD,2022-12-18 14:00:01,15.39298935,0.0001833,53.2172,89.8488,40.7815,129.9022,-0.025137,-0.0091362,0.0,0 STARLINK-5103,1 53983U 22125V   22352.58334491 -.00913620  00000-0 -25137-1 0  9993,2 53983  53.2172  89.8488 0001833  40.7815 129.9022 15.39298935  1308,6826.318,93.549,449.434,446.932,0.0
53983.0,STARLINK-5103,PAYLOAD,2022-12-18 22:00:00,15.38649208,0.0001897,53.2173,88.281,35.3261,183.1544,-0.025748,-0.00915813,0.0,0 STARLINK-5103,1 53983U 22125V   22352.91667824 -.00915813  00000-0 -25748-1 0  9993,2 53983  53.2173  88.2810 0001897  35.3261 183.1544 15.38649208  1309,6828.24,93.589,451.4,448.809,0.0
53983.0,STARLINK-5103,PAYLOAD,2022-12-19 04:00:00,15.38160389,0.0001575,53.2171,87.1056,48.4636,115.3521,-0.02615,-0.00915274,0.0,0 STARLINK-5103,1 53983U 22125V   22353.16667824 -.00915274  00000-0 -26150-1 0  9990,2 53983  53.2171  87.1056 0001575  48.4636 115.3521 15.38160389 12033,6829.686,93.618,452.627,450.476,0.0
53983.0,STARLINK-5103,PAYLOAD,2022-12-19 10:00:00,15.37671823,0.0001602,53.2174,85.9333,44.898,63.8113,-0.02654,-0.00914276,0.0,0 STARLINK-5103,1 53983U 22125V   22353.41667824 -.00914276  00000-0 -26540-1 0  9992,2 53983  53.2174  85.9333 0001602  44.8980  63.8113 15.37671823  1304,6831.1330000000025,93.648,454.092,451.904,0.0
53983.0,STARLINK-5103,PAYLOAD,2022-12-19 22:00:00,15.36696228,0.0001443,53.2173,83.589,44.708,312.4692,-0.027445,-0.0091571,0.0,0 STARLINK-5103,1 53983U 22125V   22353.91667824 -.00915710  00000-0 -27445-1 0  9996,2 53983  53.2173  83.5890 0001443  44.7080 312.4692 15.36696228  1308,6834.024,93.708,456.875,454.903,0.0
53983.0,STARLINK-5103,PAYLOAD,2022-12-20 06:00:00,15.36074399,0.000469,53.2168,82.0276,276.9824,124.8492,-0.029388,-0.00957946,0.0,0 STARLINK-5103,1 53983U 22125V   22354.25001157 -.00957946  00000-0 -29388-1 0  9990,2 53983  53.2168  82.0276 0004690 276.9824 124.8492 15.36074399 12209,6835.868,93.745,460.939,454.527,0.0
53983.0,STARLINK-5103,PAYLOAD,2022-12-20 14:00:01,15.35401749,0.0001537,53.2173,80.4701,47.6523,38.0738,-0.028977,-0.00926257,0.0,0 STARLINK-5103,1 53983U 22125V   22354.58334491 -.00926257  00000-0 -28977-1 0  9990,2 53983  53.2173  80.4701 0001537  47.6523  38.0738 15.35401749  1306,6837.864000000001,93.787,460.78,458.67800000000005,0.0
53983.0,STARLINK-5103,PAYLOAD,2022-12-21 14:00:01,15.33438963,0.0001587,53.2176,75.8012,54.65,158.0426,-0.030302,-0.00910992,0.0,0 STARLINK-5103,1 53983U 22125V   22355.58334491 -.00910992  00000-0 -30302-1 0  9995,2 53983  53.2176  75.8012 0001587  54.6500 158.0426 15.33438963  1303,6843.698,93.907,466.649,464.477,0.0
53983.0,STARLINK-5103,PAYLOAD,2022-12-21 22:00:00,15.32791239,0.0001345,53.2171,74.247,66.4068,187.0416,-0.031149,-0.00916833,0.0,0 STARLINK-5103,1 53983U 22125V   22355.91667824 -.00916833  00000-0 -31149-1 0  9991,2 53983  53.2171  74.2470 0001345  66.4068 187.0416 15.32791239 12457,6845.626,93.946,468.412,466.57,0.0
53983.0,STARLINK-5103,PAYLOAD,2022-12-22 14:00:01,15.31487189,0.0001783,53.2176,71.1465,35.6316,296.9823,-0.032313,-0.00913179,0.0,0 STARLINK-5103,1 53983U 22125V   22356.58334491 -.00913179  00000-0 -32313-1 0  9990,2 53983  53.2176  71.1465 0001783  35.6316 296.9823 15.31487189  1301,6849.511,94.026,472.598,470.155,0.0
53983.0,STARLINK-5103,PAYLOAD,2022-12-22 22:00:00,15.30836506,0.000173,53.2175,69.5965,34.3225,336.7018,-0.0330209999999999,-0.0091423999999999,0.0,0 STARLINK-5103,1 53983U 22125V   22356.91667824 -.00914240  00000-0 -33021-1 0  9993,2 53983  53.2175  69.5965 0001730  34.3225 336.7018 15.30836506 12618,6851.4519999999975,94.066,474.503,472.132,0.0
53983.0,STARLINK-5103,PAYLOAD,2022-12-23 14:00:01,15.295342300000002,0.0001276,53.2173,66.5058,77.1139,8.3809,-0.034344,-0.00913074,0.0,0 STARLINK-5103,1 53983U 22125V   22357.58334491 -.00913074  00000-0 -34344-1 0  9991,2 53983  53.2173  66.5058 0001276  77.1139   8.3809 15.29534230  1301,6855.340999999999,94.146,478.08,476.331,0.0
53983.0,STARLINK-5103,PAYLOAD,2022-12-23 22:00:01,15.28885931,0.0001367,53.217,64.9605,62.9682,58.6525,-0.035188,-0.00928135,0.0,0 STARLINK-5103,1 53983U 22125V   22357.91668981 -.00928135  00000-0 -35188-1 0  9993,2 53983  53.2170  64.9605 0001367  62.9682  58.6525 15.28885931 12765,6857.278,94.186,480.081,478.206,0.0
53983.0,STARLINK-5103,PAYLOAD,2022-12-24 14:00:01,15.27578911,0.0001431,53.217,61.8787,77.1102,114.2261,-0.036293,-0.00920181,0.0,0 STARLINK-5103,1 53983U 22125V   22358.58334491 -.00920181  00000-0 -36293-1 0  9994,2 53983  53.2170  61.8787 0001431  77.1102 114.2261 15.27578911  1309,6861.189,94.267,484.036,482.073,0.0
53983.0,STARLINK-5103,PAYLOAD,2022-12-24 22:00:00,15.26932057,0.0001348,53.217,60.3377,69.8351,155.2163,-0.03731,-0.00926911,0.0,0 STARLINK-5103,1 53983U 22125V   22358.91667824 -.00926911  00000-0 -37310-1 0  9998,2 53983  53.2170  60.3377 0001348  69.8351 155.2163 15.26932057 12918,6863.127,94.307,485.917,484.067,0.0
53983.0,STARLINK-5103,PAYLOAD,2022-12-25 14:00:01,15.25624668,0.0001337,53.217,57.2653,79.2978,210.8391,-0.038425,-0.00918097,0.0,0 STARLINK-5103,1 53983U 22125V   22359.58334491 -.00918097  00000-0 -38425-1 0  9997,2 53983  53.2170  57.2653 0001337  79.2978 210.8391 15.25624668  1305,6867.047,94.388,489.83,487.994,0.0
53983.0,STARLINK-5103,PAYLOAD,2022-12-25 22:00:00,15.24976208,0.0001213,53.2171,55.7288,70.10600000000001,251.4001,-0.03941,-0.00922968,0.0,0 STARLINK-5103,1 53983U 22125V   22359.91667824 -.00922968  00000-0 -39410-1 0  9990,2 53983  53.2171  55.7288 0001213  70.1060 251.4001 15.24976208 13073,6868.994000000002,94.428,491.692,490.026,0.0
53983.0,STARLINK-5103,PAYLOAD,2022-12-26 00:00:00,15.24811014,0.0001246,53.2174,55.3447,65.83800000000001,353.3893,-0.039411,-0.00918737,0.0,0 STARLINK-5103,1 53983U 22125V   22360.00001157 -.00918737  00000-0 -39411-1 0  9993,2 53983  53.2174  55.3447 0001246  65.8380 353.3893 15.24811014  1308,6869.49,94.438,492.211,490.499,0.0
53983.0,STARLINK-5103,PAYLOAD,2022-12-26 14:00:01,15.23673146,0.0001250999999999,53.2168,52.6655,78.7874,303.1085,-0.040866,-0.00920524,0.0,0 STARLINK-5103,1 53983U 22125V   22360.58334491 -.00920524  00000-0 -40866-1 0  9999,2 53983  53.2168  52.6655 0001251  78.7874 303.1085 15.23673146  1306,6872.91,94.508,495.634,493.915,0.0
53983.0,STARLINK-5103,PAYLOAD,2022-12-26 22:00:00,15.23025036,0.0001281999999999,53.2168,51.1336,67.2643,343.6535,-0.041897,-0.00925291,0.0,0 STARLINK-5103,1 53983U 22125V   22360.91667824 -.00925291  00000-0 -41897-1 0  9996,2 53983  53.2168  51.1336 0001282  67.2643 343.6535 15.23025036 13229,6874.859,94.549,497.606,495.843,0.0
